CTC2_L_00322001-01
1 70798U 23456AJ  26070.40846065  .00000000  00000+0  00000-0 0  9998
2 70798  85.0000   0.0000 0000000   0.0000   0.0000 13.69880518    16
CTC2_L_00322001-02
1 70799U 22721GJ  26070.40846065  .00000000  00000+0  00000-0 0  9993
2 70799  85.0000   0.0000 0000000   0.0000  90.0000 13.69880518    16
CTC2_L_00322001-03
1 70800U 25875JM  26070.40846065  .00000000  00000+0  00000-0 0  9999
2 70800  85.0000   0.0000 0000000   0.0000 180.0000 13.69880518    19
CTC2_L_00322001-04
1 70801U 23803UN  26070.40846065  .00000000  00000+0  00000-0 0  9999
2 70801  85.0000   0.0000 0000000   0.0000 270.0000 13.69880518    10
CTC2_L_00322002-01
1 70802U 22953V   26070.40846065  .00000000  00000+0  00000-0 0  9995
2 70802  85.0000  12.0000 0000000   0.0000  12.0000 13.69880518    18
CTC2_L_00322002-02
1 70803U 24050XJ  26070.40846065  .00000000  00000+0  00000-0 0  9996
2 70803  85.0000  12.0000 0000000   0.0000 102.0000 13.69880518    19
CTC2_L_00322002-03
1 70804U 22514JO  26070.40846065  .00000000  00000+0  00000-0 0  9990
2 70804  85.0000  12.0000 0000000   0.0000 192.0000 13.69880518    19
CTC2_L_00322002-04
1 70805U 25645QG  26070.40846065  .00000000  00000+0  00000-0 0  9999
2 70805  85.0000  12.0000 0000000   0.0000 282.0000 13.69880518    10
CTC2_L_00322003-01
1 70806U 23189CB  26070.40846065  .00000000  00000+0  00000-0 0  9991
2 70806  85.0000  24.0000 0000000   0.0000  24.0000 13.69880518    18
CTC2_L_00322003-02
1 70807U 22807ET  26070.40846065  .00000000  00000+0  00000-0 0  9998
2 70807  85.0000  24.0000 0000000   0.0000 114.0000 13.69880518    19
CTC2_L_00322003-03
1 70808U 22469OP  26070.40846065  .00000000  00000+0  00000-0 0  9993
2 70808  85.0000  24.0000 0000000   0.0000 204.0000 13.69880518    10
CTC2_L_00322003-04
1 70809U 26781FJ  26070.40846065  .00000000  00000+0  00000-0 0  9995
2 70809  85.0000  24.0000 0000000   0.0000 294.0000 13.69880518    10
CTC2_L_00322004-01
1 70810U 26335GL  26070.40846065  .00000000  00000+0  00000-0 0  9992
2 70810  85.0000  36.0000 0000000   0.0000  36.0000 13.69880518    19
CTC2_L_00322004-02
1 70811U 24514NF  26070.40846065  .00000000  00000+0  00000-0 0  9990
2 70811  85.0000  36.0000 0000000   0.0000 126.0000 13.69880518    10
CTC2_L_00322004-03
1 70812U 26314HU  26070.40846065  .00000000  00000+0  00000-0 0  9991
2 70812  85.0000  36.0000 0000000   0.0000 216.0000 13.69880518    11
CTC2_L_00322004-04
1 70813U 26285ET  26070.40846065  .00000000  00000+0  00000-0 0  9999
2 70813  85.0000  36.0000 0000000   0.0000 306.0000 13.69880518    12
CTC2_L_00322005-01
1 70814U 23505TH  26070.40846065  .00000000  00000+0  00000-0 0  9992
2 70814  85.0000  48.0000 0000000   0.0000  48.0000 13.69880518    19
CTC2_L_00322005-02
1 70815U 23130CG  26070.40846065  .00000000  00000+0  00000-0 0  9997
2 70815  85.0000  48.0000 0000000   0.0000 138.0000 13.69880518    10
CTC2_L_00322005-03
1 70816U 25386GT  26070.40846065  .00000000  00000+0  00000-0 0  9993
2 70816  85.0000  48.0000 0000000   0.0000 228.0000 13.69880518    11
CTC2_L_00322005-04
1 70817U 24325EJ  26070.40846065  .00000000  00000+0  00000-0 0  9996
2 70817  85.0000  48.0000 0000000   0.0000 318.0000 13.69880518    12
CTC2_L_00322006-01
1 70818U 23922PD  26070.40846065  .00000000  00000+0  00000-0 0  9999
2 70818  85.0000  60.0000 0000000   0.0000  60.0000 13.69880518    11
CTC2_L_00322006-02
1 70819U 26842UG  26070.40846065  .00000000  00000+0  00000-0 0  9994
2 70819  85.0000  60.0000 0000000   0.0000 150.0000 13.69880518    12
CTC2_L_00322006-03
1 70820U 23462WA  26070.40846065  .00000000  00000+0  00000-0 0  9991
2 70820  85.0000  60.0000 0000000   0.0000 240.0000 13.69880518    14
CTC2_L_00322006-04
1 70821U 25066NA  26070.40846065  .00000000  00000+0  00000-0 0  9994
2 70821  85.0000  60.0000 0000000   0.0000 330.0000 13.69880518    15
CTC2_L_00322007-01
1 70822U 24667ZY  26070.40846065  .00000000  00000+0  00000-0 0  9991
2 70822  85.0000  72.0000 0000000   0.0000  72.0000 13.69880518    12
CTC2_L_00322007-02
1 70823U 23554YX  26070.40846065  .00000000  00000+0  00000-0 0  9996
2 70823  85.0000  72.0000 0000000   0.0000 162.0000 13.69880518    13
CTC2_L_00322007-03
1 70824U 25827OR  26070.40846065  .00000000  00000+0  00000-0 0  9992
2 70824  85.0000  72.0000 0000000   0.0000 252.0000 13.69880518    14
CTC2_L_00322007-04
1 70825U 25015RN  26070.40846065  .00000000  00000+0  00000-0 0  9992
2 70825  85.0000  72.0000 0000000   0.0000 342.0000 13.69880518    15
CTC2_L_00322008-01
1 70826U 22455IJ  26070.40846065  .00000000  00000+0  00000-0 0  9998
2 70826  85.0000  84.0000 0000000   0.0000  84.0000 13.69880518    12
CTC2_L_00322008-02
1 70827U 26028RX  26070.40846065  .00000000  00000+0  00000-0 0  9999
2 70827  85.0000  84.0000 0000000   0.0000 174.0000 13.69880518    13
CTC2_L_00322008-03
1 70828U 26468HV  26070.40846065  .00000000  00000+0  00000-0 0  9998
2 70828  85.0000  84.0000 0000000   0.0000 264.0000 13.69880518    14
CTC2_L_00322008-04
1 70829U 26882L   26070.40846065  .00000000  00000+0  00000-0 0  9999
2 70829  85.0000  84.0000 0000000   0.0000 354.0000 13.69880518    15
CTC2_L_00322009-01
1 70830U 24567DA  26070.40846065  .00000000  00000+0  00000-0 0  9999
2 70830  85.0000  96.0000 0000000   0.0000  96.0000 13.69880518    13
CTC2_L_00322009-02
1 70831U 24358YB  26070.40846065  .00000000  00000+0  00000-0 0  9998
2 70831  85.0000  96.0000 0000000   0.0000 186.0000 13.69880518    14
CTC2_L_00322009-03
1 70832U 25197SW  26070.40846065  .00000000  00000+0  00000-0 0  9991
2 70832  85.0000  96.0000 0000000   0.0000 276.0000 13.69880518    15
CTC2_L_00322009-04
1 70833U 25486OZ  26070.40846065  .00000000  00000+0  00000-0 0  9993
2 70833  85.0000  96.0000 0000000   0.0000   6.0000 13.69880518    17
CTC2_L_00322010-01
1 70834U 26729VX  26070.40846065  .00000000  00000+0  00000-0 0  9995
2 70834  85.0000 108.0000 0000000   0.0000 108.0000 13.69880518    15
CTC2_L_00322010-02
1 70835U 22161TB  26070.40846065  .00000000  00000+0  00000-0 0  9992
2 70835  85.0000 108.0000 0000000   0.0000 198.0000 13.69880518    15
CTC2_L_00322010-03
1 70836U 24340RJ  26070.40846065  .00000000  00000+0  00000-0 0  9994
2 70836  85.0000 108.0000 0000000   0.0000 288.0000 13.69880518    16
CTC2_L_00322010-04
1 70837U 25934AG  26070.40846065  .00000000  00000+0  00000-0 0  9995
2 70837  85.0000 108.0000 0000000   0.0000  18.0000 13.69880518    18
CTC2_L_00322011-01
1 70838U 23477GF  26070.40846065  .00000000  00000+0  00000-0 0  9996
2 70838  85.0000 120.0000 0000000   0.0000 120.0000 13.69880518    17
CTC2_L_00322011-02
1 70839U 22848JE  26070.40846065  .00000000  00000+0  00000-0 0  9998
2 70839  85.0000 120.0000 0000000   0.0000 210.0000 13.69880518    18
CTC2_L_00322011-03
1 70840U 24853ZG  26070.40846065  .00000000  00000+0  00000-0 0  9998
2 70840  85.0000 120.0000 0000000   0.0000 300.0000 13.69880518    10
CTC2_L_00322011-04
1 70841U 23725JY  26070.40846065  .00000000  00000+0  00000-0 0  9996
2 70841  85.0000 120.0000 0000000   0.0000  30.0000 13.69880518    11
CTC2_L_00322012-01
1 70842U 25443YD  26070.40846065  .00000000  00000+0  00000-0 0  9996
2 70842  85.0000 132.0000 0000000   0.0000 132.0000 13.69880518    18
CTC2_L_00322012-02
1 70843U 22472ZX  26070.40846065  .00000000  00000+0  00000-0 0  9996
2 70843  85.0000 132.0000 0000000   0.0000 222.0000 13.69880518    19
CTC2_L_00322012-03
1 70844U 26069YA  26070.40846065  .00000000  00000+0  00000-0 0  9993
2 70844  85.0000 132.0000 0000000   0.0000 312.0000 13.69880518    10
CTC2_L_00322012-04
1 70845U 24886NO  26070.40846065  .00000000  00000+0  00000-0 0  9999
2 70845  85.0000 132.0000 0000000   0.0000  42.0000 13.69880518    11
CTC2_L_00322013-01
1 70846U 23651TI  26070.40846065  .00000000  00000+0  00000-0 0  9999
2 70846  85.0000 144.0000 0000000   0.0000 144.0000 13.69880518    18
CTC2_L_00322013-02
1 70847U 24263WS  26070.40846065  .00000000  00000+0  00000-0 0  9990
2 70847  85.0000 144.0000 0000000   0.0000 234.0000 13.69880518    19
CTC2_L_00322013-03
1 70848U 26999LK  26070.40846065  .00000000  00000+0  00000-0 0  9999
2 70848  85.0000 144.0000 0000000   0.0000 324.0000 13.69880518    10
CTC2_L_00322013-04
1 70849U 24425YK  26070.40846065  .00000000  00000+0  00000-0 0  9992
2 70849  85.0000 144.0000 0000000   0.0000  54.0000 13.69880518    11
CTC2_L_00322014-01
1 70850U 25362AY  26070.40846065  .00000000  00000+0  00000-0 0  9995
2 70850  85.0000 156.0000 0000000   0.0000 156.0000 13.69880518    19
CTC2_L_00322014-02
1 70851U 23584MM  26070.40846065  .00000000  00000+0  00000-0 0  9990
2 70851  85.0000 156.0000 0000000   0.0000 246.0000 13.69880518    10
CTC2_L_00322014-03
1 70852U 24836US  26070.40846065  .00000000  00000+0  00000-0 0  9992
2 70852  85.0000 156.0000 0000000   0.0000 336.0000 13.69880518    11
CTC2_L_00322014-04
1 70853U 25426SD  26070.40846065  .00000000  00000+0  00000-0 0  9999
2 70853  85.0000 156.0000 0000000   0.0000  66.0000 13.69880518    12
CTC2_L_00322015-01
1 70854U 24821LR  26070.40846065  .00000000  00000+0  00000-0 0  9998
2 70854  85.0000 168.0000 0000000   0.0000 168.0000 13.69880518    19
CTC2_L_00322015-02
1 70855U 23684F   26070.40846065  .00000000  00000+0  00000-0 0  9995
2 70855  85.0000 168.0000 0000000   0.0000 258.0000 13.69880518    10
CTC2_L_00322015-03
1 70856U 24412ZQ  26070.40846065  .00000000  00000+0  00000-0 0  9996
2 70856  85.0000 168.0000 0000000   0.0000 348.0000 13.69880518    11
CTC2_L_00322015-04
1 70857U 22706GZ  26070.40846065  .00000000  00000+0  00000-0 0  9991
2 70857  85.0000 168.0000 0000000   0.0000  78.0000 13.69880518    12
CTC2_L_00322016-01
1 70858U 22420XF  26070.40846065  .00000000  00000+0  00000-0 0  9995
2 70858  85.0000 180.0000 0000000   0.0000 180.0000 13.69880518    11
CTC2_L_00322016-02
1 70859U 25873JQ  26070.40846065  .00000000  00000+0  00000-0 0  9991
2 70859  85.0000 180.0000 0000000   0.0000 270.0000 13.69880518    12
